[{"OBJECT_NAME":"FENGYUN 3E","OBJECT_ID":"2021-062A","EPOCH":"2026-03-09T23:36:50.973120","MEAN_MOTION":14.19894265,"ECCENTRICITY":0.00022297,"INCLINATION":98.7518,"RA_OF_ASC_NODE":73.4944,"ARG_OF_PERICENTER":41.3749,"MEAN_ANOMALY":318.7596,"EPHEMERIS_TYPE":0,"CLASSIFICATION_TYPE":"U","NORAD_CAT_ID":49008,"ELEMENT_SET_NO":999,"REV_AT_EPOCH":24250,"BSTAR":7.5486824e-5,"MEAN_MOTION_DOT":1.16e-6,"MEAN_MOTION_DDOT":0},{"OBJECT_NAME":"DMSP 5D-2 F8 DEB","OBJECT_ID":"1987-053K","EPOCH":"2026-03-09T22:52:52.235904","MEAN_MOTION":14.24614522,"ECCENTRICITY":0.00199757,"INCLINATION":98.7272,"RA_OF_ASC_NODE":259.6631,"ARG_OF_PERICENTER":61.4666,"MEAN_ANOMALY":298.8521,"EPHEMERIS_TYPE":0,"CLASSIFICATION_TYPE":"U","NORAD_CAT_ID":60252,"ELEMENT_SET_NO":999,"REV_AT_EPOCH":8500,"BSTAR":0.00081992191,"MEAN_MOTION_DOT":1.865e-5,"MEAN_MOTION_DDOT":0}]
